ONEWEB-0201             
1 48241U 21031AH  22175.81479031  .00000126  00000+0  30463-3 0  9993
2 48241  87.9035 218.5672 0002153  95.7194 264.4182 13.14501195 57447
ONEWEB-0207             
1 48242U 21031AJ  22175.86558159  .00000110  00000+0  26209-3 0  9994
2 48242  87.9018 218.5337 0002238  87.2053 272.9333 13.14504240 57368
ONEWEB-0208             
1 48243U 21031AK  22175.84231482 -.00000195  00000+0 -55994-3 0  9998
2 48243  87.9007 218.5161 0002455 106.0512 254.0888 13.14504160 57371
ONEWEB-0200             
1 48244U 21031AL  22175.88249825  .00000354  00000+0  92068-3 0  9991
2 48244  87.9015 218.4967 0002503 106.3007 253.8399 13.14502757 57307
ONEWEB-0217             
1 48245U 21031AM  22176.05165090 -.00000006  00000+0 -51049-4 0  9994
2 48245  87.9016 218.4882 0002498 105.9530 254.1875 13.14501818 57281
ONEWEB-0211             
1 48767U 21045A   22176.47690053  .00000179  00000+0  44229-3 0  9996
2 48767  87.9087 188.2385 0001976 102.8487 257.2864 13.15550675 54541
ONEWEB-0223             
1 48768U 21045B   22176.49803308  .00000098  00000+0  22694-3 0  9990
2 48768  87.9097 188.2038 0001835 108.9975 251.1355 13.15549341 54547
ONEWEB-0230             
1 48769U 21045C   22176.09028302  .00000131  00000+0  31263-3 0  9990
2 48769  87.9133 188.2938 0001776  98.8546 261.2785 13.15552483 54723
ONEWEB-0237             
1 48770U 21045D   22176.53605171  .00000002  00000+0 -28923-4 0  9994
2 48770  87.9118 188.0849 0001510 103.9379 256.1919 13.15550869 54521
ONEWEB-0235             
1 48771U 21045E   22175.74802338 -.00000113  00000+0 -33343-3 0  9996
2 48771  87.9139 188.2739 0001321 120.4435 239.6826 13.15548628 53287
ONEWEB-0242             
1 48772U 21045F   22176.12196987  .00000022  00000+0  23926-4 0  9990
2 48772  87.9091 188.2689 0001599  93.7331 266.3983 13.15551969 54502
ONEWEB-0241             
1 48773U 21045G   22176.48958147  .00000128  00000+0  30488-3 0  9991
2 48773  87.9079 188.1746 0002250 109.0674 251.0700 13.15550523 54466
ONEWEB-0243             
1 48774U 21045H   22176.52127549 -.00000071  00000+0 -22387-3 0  9999
2 48774  87.9141 188.1711 0001435  99.3603 260.7689 13.15548530 54497
ONEWEB-0222             
1 48775U 21045J   22175.75013645 -.00000042  00000+0 -14431-3 0  9994
2 48775  87.9131 188.3493 0001951 102.8899 257.2449 13.15549037 53303
ONEWEB-0244             
1 48776U 21045K   22176.08919234 -.00000697  00000+0 -18852-2 0  9997
2 48776  87.9079 188.2421 0001247  94.7651 265.3622 13.15545577 55038
ONEWEB-0247             
1 48777U 21045L   22176.52761744 -.00000062  00000+0 -19774-3 0  9999
2 48777  87.9090 188.1427 0001442 115.1773 244.9506 13.15547688 54541
ONEWEB-0245             
1 48778U 21045M   22176.52339193 -.00000108  00000+0 -31958-3 0  9998
2 48778  87.9145 188.1324 0002345 101.8773 258.2620 13.15548232 54512
ONEWEB-0229             
1 48779U 21045N   22175.75647144 -.00000099  00000+0 -29619-3 0  9991
2 48779  87.9141 188.2766 0001892 105.2847 254.8493 13.15548096 53311
ONEWEB-0228             
1 48780U 21045P   22176.53182014  .00000003  00000+0 -25607-4 0  9998
2 48780  87.9117 188.1422 0001743  93.9545 266.1785 13.15547092 54469
ONEWEB-0232             
1 48781U 21045Q   22176.52548572 -.00000067  00000+0 -21197-3 0  9993
2 48781  87.9026 188.3044 0002168  99.9730 260.1645 13.15553429 54779
ONEWEB-0231             
1 48782U 21045R   22175.74380979 -.00000060  00000+0 -19354-3 0  9997
2 48782  87.9001 188.3890 0001601 104.2309 255.8999 13.15547866 53247
ONEWEB-0234             
1 48783U 21045S   22176.52971817 -.00000059  00000+0 -19021-3 0  9991
2 48783  87.9092 188.1860 0002241  96.0481 264.0905 13.15550506 54619
ONEWEB-0238             
1 48784U 21045T   22176.08500249 -.00000010  00000+0 -60783-4 0  9999
2 48784  87.9128 188.2909 0002239  94.4299 265.7088 13.15546928 54456
ONEWEB-0240             
1 48785U 21045U   22176.48746629  .00000135  00000+0  32468-3 0  9992
2 48785  87.9085 188.1872 0002185 112.3377 247.7985 13.15547329 54524
ONEWEB-0246             
1 48786U 21045V   22176.48324793  .00000179  00000+0  44014-3 0  9995
2 48786  87.9080 188.1953 0001631 102.0555 258.0758 13.15548739 54393
ONEWEB-0210             
1 48787U 21045W   22176.53393887 -.00000018  00000+0 -80885-4 0  9993
2 48787  87.9086 188.1863 0001037  96.0038 264.1211 13.15551108 54451
ONEWEB-0214             
1 48788U 21045X   22175.78393326  .00000108  00000+0  25190-3 0  9993
2 48788  87.9097 188.3584 0001002  75.5485 284.5757 13.15548353 53195
ONEWEB-0221             
1 48789U 21045Y   22176.47479726  .00000142  00000+0  34267-3 0  9993
2 48789  87.9081 188.2129 0001844 100.7378 259.3960 13.15547949 54512
ONEWEB-0213             
1 48790U 21045Z   22176.46211652  .00000029  00000+0  42799-4 0  9990
2 48790  87.9148 188.1935 0001635 102.9016 257.2297 13.15547409 54569
ONEWEB-0212             
1 48791U 21045AA  22175.75857974 -.00000127  00000+0 -37179-3 0  9991
2 48791  87.9146 188.3598 0002268  86.6278 273.5112 13.15549181 53336
ONEWEB-0227             
1 48792U 21045AB  22176.05647940 -.00000106  00000+0 -31456-3 0  9995
2 48792  87.9166 188.2942 0002061 102.0910 258.0451 13.15550310 54452
ONEWEB-0226             
1 48793U 21045AC  22175.74590970 -.00000060  00000+0 -19256-3 0  9994
2 48793  87.9140 188.3083 0001218 101.9581 258.1686 13.15548098 53255
ONEWEB-0224             
1 48794U 21045AD  22176.09240520  .00000159  00000+0  38711-3 0  9991
2 48794  87.9078 188.2623 0002534  93.6812 266.4608 13.15548623 54342
ONEWEB-0233             
1 48795U 21045AE  22176.56669299  .00000140  00000+0  33694-3 0  9997
2 48795  87.9147 188.1459 0002175 101.4617 258.6758 13.15547093 54415
ONEWEB-0190             
1 48796U 21045AF  22176.54027061 -.00000010  00000+0 -61571-4 0  9995
2 48796  87.9150 188.1407 0001433 135.8223 224.3022 13.15551687 54499
ONEWEB-0236             
1 48797U 21045AG  22175.79661387  .00000135  00000+0  32492-3 0  9992
2 48797  87.9086 188.3668 0001944  94.9092 265.2260 13.15550166 53167
ONEWEB-0248             
1 48798U 21045AH  22176.56987359  .00000262  00000+0  66141-3 0  9998
2 48798  87.9086 188.1859 0002278 121.5767 238.5585 13.15549166 54549
ONEWEB-0225             
1 48799U 21045AJ  22176.05857360 -.00000072  00000+0 -22613-3 0  9998
2 48799  87.9131 188.3049 0001778 114.9043 245.2273 13.15545968 54502
ONEWEB-0215             
1 48800U 21045AK  22175.80084479  .00000153  00000+0  37188-3 0  9997
2 48800  87.9082 188.3355 0001969 126.3565 233.7747 13.15548124 53209
ONEWEB-0216             
1 48801U 21045AL  22176.41985767  .00000113  00000+0  26691-3 0  9999
2 48801  87.9129 188.2406 0001712  84.3099 275.8227 13.15546321 54410
ONEWEB-0239             
1 48802U 21045AM  22175.73956424 -.00000031  00000+0 -11556-3 0  9997
2 48802  87.9131 188.3773 0001924 123.0852 237.0463 13.15549178 53240
ONEWEB-0249             
1 48967U 21060A   22176.44525942  .00000029  00000+0  42848-4 0  9996
2 48967  87.9116 157.9790 0001870  84.9721 275.1623 13.16596136 49744
ONEWEB-0250             
1 48968U 21060B   22175.68988896 -.00000023  00000+0 -93378-4 0  9993
2 48968  87.9117 158.1316 0001967  99.0930 261.0424 13.16595851 48339
ONEWEB-0251             
1 48969U 21060C   22176.50527040  .00233105  18373-4  74987-3 0  9994
2 48969  87.4111 111.0323 0004795   7.7397 352.3959 15.90870323 56420
ONEWEB-0252             
1 48970U 21060D   22176.47749411  .00000149  00000+0  35581-3 0  9990
2 48970  87.9095 157.9658 0001645  89.9537 270.1783 13.16596817 49790
ONEWEB-0253             
1 48971U 21060E   22176.46828016  .00000145  00000+0  34564-3 0  9995
2 48971  87.9102 157.9901 0001621 100.8378 259.2935 13.16597023 49710
ONEWEB-0254             
1 48972U 21060F   22175.63922309  .00000090  00000+0  20178-3 0  9999
2 48972  87.9101 158.1141 0001577  97.7892 262.3418 13.16593098 48329
ONEWEB-0255             
1 48973U 21060G   22175.90634849 -.00000042  00000+0 -14409-3 0  9998
2 48973  87.9115 158.1360 0001962  88.6213 271.5143 13.16591011 48434
ONEWEB-0256             
1 48974U 21060H   22175.70369594  .00000030  00000+0  44768-4 0  9996
2 48974  87.9102 158.1358 0002017  77.3450 282.7907 13.16594811 48374
ONEWEB-0257             
1 48975U 21060J   22176.19193383  .00000003  00000+0 -24449-4 0  9997
2 48975  87.9109 158.0746 0001614  85.6592 274.4723 13.16596309 49686
ONEWEB-0258             
1 48976U 21060K   22175.89024054  .00000037  00000+0  63349-4 0  9990
2 48976  87.9117 158.1322 0001952  91.8289 268.3065 13.16596299 48367
ONEWEB-0259             
1 48977U 21060L   22176.18962648  .00000028  00000+0  40381-4 0  9995
2 48977  87.9118 158.0489 0001830 105.9174 254.2159 13.16594842 49728
ONEWEB-0260             
1 48978U 21060M   22175.65074317  .00000059  00000+0  11969-3 0  9997
2 48978  87.9104 158.1588 0001465  58.8353 301.2921 13.16596294 48344
ONEWEB-0261             
1 48979U 21060N   22175.69217114 -.00000005  00000+0 -46109-4 0  9994
2 48979  87.9109 158.1542 0001535  90.9495 269.1812 13.16596147 48407
ONEWEB-0262             
1 48980U 21060P   22176.50974337  .00000025  00000+0  32699-4 0  9993
2 48980  87.9126 157.9403 0002050 108.4977 251.6377 13.16594291 49775
ONEWEB-0263             
1 48981U 21060Q   22176.00999989  .00000071  00000+0  15277-3 0  9992
2 48981  87.9133 158.0354 0001586 111.7951 248.3349 13.16595112 49677
ONEWEB-0264             
1 48982U 21060R   22175.89368678  .00000000  00000+0 -33310-4 0  9996
2 48982  87.9142 158.0147 0001859  90.2917 269.8427 13.16595308 48361
ONEWEB-0266             
1 48984U 21060T   22175.68759052 -.00000011  00000+0 -62891-4 0  9994
2 48984  87.9121 158.1155 0002128  88.3713 271.7662 13.16595362 48321
ONEWEB-0267             
1 48985U 21060U   22176.00309439  .00000024  00000+0  30071-4 0  9999
2 48985  87.9112 158.0569 0001363  91.9628 268.1659 13.16594594 49665
